60907,STARLINK-11226 [DTC],2024,91.74,-1.0,+,53.16,Active,0,LEO,USA,USA,Unknown,Unknown,Unknown,1 60907U 24154E   25158.39570757 -.00001278  00000+0 -56890-5 0  9994,2 60907  53.1607  48.5606 0001449  67.6153 292.5018 15.69712295 45273,15.69712295,0.0001449,LEO
60908,STARLINK-11229 [DTC],2024,91.74,-1.0,+,53.16,Active,0,LEO,USA,USA,Unknown,Unknown,Unknown,1 60908U 24154F   25157.94511312 -.00000571  00000+0  14785-6 0  9999,2 60908  53.1587  50.7277 0001022  81.4277 278.6857 15.69715354 45206,15.69715354,0.0001022,LEO
60909,STARLINK-11265 [DTC],2024,91.74,-1.0,+,53.16,Active,0,LEO,USA,USA,Unknown,Unknown,Unknown,1 60909U 24154G   25158.09207602 -.00004115  00000+0 -29120-4 0  9997,2 60909  53.1585  50.2290 0000978  99.1354 260.9774 15.69716601 45226,15.69716601,9.78e-05,LEO
60910,STARLINK-11250 [DTC],2024,91.74,-1.0,+,53.16,Active,0,LEO,USA,USA,Unknown,Unknown,Unknown,1 60910U 24154H   25158.00387682 -.00001635  00000+0 -86414-5 0  9991,2 60910  53.1595  50.3821 0000769  71.8116 288.2985 15.69717514 45211,15.69717514,7.69e-05,LEO
60911,STARLINK-11190 [DTC],2024,91.74,-1.0,+,53.16,Active,0,LEO,USA,USA,Unknown,Unknown,Unknown,1 60911U 24154J   25158.89034032 -.00001153  00000+0 -46615-5 0  9991,2 60911  53.1582  45.9546 0000641 104.0918 256.0171 15.69716925 45349,15.69716925,6.41e-05,LEO
60912,STARLINK-11225 [DTC],2024,91.74,-1.0,+,53.16,Active,0,LEO,USA,USA,Unknown,Unknown,Unknown,1 60912U 24154K   25157.99406680  .00005151  00000+0  47387-4 0  9990,2 60912  53.1598  50.3166 0001233 109.9912 250.1239 15.69689374 45203,15.69689374,0.0001233,LEO
60913,STARLINK-11273 [DTC],2024,91.74,-1.0,+,53.16,Active,0,LEO,USA,USA,Unknown,Unknown,Unknown,1 60913U 24154L   25157.98916105 -.00000247  00000+0  28184-5 0  9995,2 60913  53.1589  50.2825 0001082 105.8386 254.2751 15.69709487 45209,15.69709487,0.0001082,LEO
60914,STARLINK-11248 [DTC],2024,91.74,-1.0,+,53.16,Active,0,LEO,USA,USA,Unknown,Unknown,Unknown,1 60914U 24154M   25158.68462127 -.00000452  00000+0  11261-5 0  9990,2 60914  53.1593  46.7981 0000783  78.0383 282.0722 15.69707602 45319,15.69707602,7.83e-05,LEO
60915,STARLINK-11271 [DTC],2024,91.74,-1.0,+,53.16,Active,0,LEO,USA,USA,Unknown,Unknown,Unknown,1 60915U 24154N   25158.67971574 -.00000290  00000+0  24660-5 0  9998,2 60915  53.1592  46.7650 0001111  85.5473 274.5672 15.69704800 45318,15.697048,0.0001111,LEO
60916,STARLINK-32371,2024,94.11,-1.0,+,53.16,Active,0,LEO,USA,USA,Unknown,Unknown,Unknown,1 60916U 24154P   25157.92238396  .00000698  00000+0  35705-4 0  9996,2 60916  53.1609 124.7645 0001378  84.8289 275.2869 15.30200824 44119,15.30200824,0.0001378,LEO
60917,STARLINK-32369,2024,94.11,-1.0,+,53.16,Active,0,LEO,USA,USA,Unknown,Unknown,Unknown,1 60917U 24154Q   25158.88311809 -.00000114  00000+0  82714-5 0  9991,2 60917  53.1608 120.0961 0001326  85.9897 274.1255 15.30188569 44263,15.30188569,0.0001326,LEO
60918,STARLINK-32317,2024,94.11,-1.0,+,53.16,Active,0,LEO,USA,USA,Unknown,Unknown,Unknown,1 60918U 24154R   25158.60086459 -.00000396  00000+0 -12211-5 0  9990,2 60918  53.1603 121.8894 0001594  95.7936 264.3246 15.30194079 44212,15.30194079,0.0001594,LEO
60919,STARLINK-32367,2024,94.11,-1.0,+,53.16,Active,0,LEO,USA,USA,Unknown,Unknown,Unknown,1 60919U 24154S   25158.61025111 -.00000664  00000+0 -10282-4 0  9993,2 60919  53.1597 121.2347 0001405  93.4262 266.6899 15.30188826 44234,15.30188826,0.0001405,LEO
60920,STARLINK-32345,2024,94.11,-1.0,+,53.16,Active,0,LEO,USA,USA,Unknown,Unknown,Unknown,1 60920U 24154T   25157.62220205 -.00000636  00000+0 -93603-5 0  9994,2 60920  53.1594 126.4447 0001257 100.9368 259.1774 15.30193706 44071,15.30193706,0.0001257,LEO
