[
  {
    "OBJECT_NAME": "STARLINK-11226 [DTC]",
    "OBJECT_ID": "2024-154E",
    "EPOCH": "2025-06-07T09:29:49.134048",
    "MEAN_MOTION": 15.69712295,
    "ECCENTRICITY": 0.0001449,
    "INCLINATION": 53.1607,
    "RA_OF_ASC_NODE": 48.5606,
    "ARG_OF_PERICENTER": 67.6153,
    "MEAN_ANOMALY": 292.5018,
    "EPHEMERIS_TYPE": 0,
    "CLASSIFICATION_TYPE": "U",
    "NORAD_CAT_ID": 60907,
    "ELEMENT_SET_NO": 999,
    "REV_AT_EPOCH": 4527,
    "BSTAR": -5.689e-06,
    "MEAN_MOTION_DOT": -1.278e-05,
    "MEAN_MOTION_DDOT": 0
  },
  {
    "OBJECT_NAME": "STARLINK-11229 [DTC]",
    "OBJECT_ID": "2024-154F",
    "EPOCH": "2025-06-06T22:40:57.773568",
    "MEAN_MOTION": 15.69715354,
    "ECCENTRICITY": 0.0001022,
    "INCLINATION": 53.1587,
    "RA_OF_ASC_NODE": 50.7277,
    "ARG_OF_PERICENTER": 81.4277,
    "MEAN_ANOMALY": 278.6857,
    "EPHEMERIS_TYPE": 0,
    "CLASSIFICATION_TYPE": "U",
    "NORAD_CAT_ID": 60908,
    "ELEMENT_SET_NO": 999,
    "REV_AT_EPOCH": 4520,
    "BSTAR": 1.4785e-07,
    "MEAN_MOTION_DOT": -5.71e-06,
    "MEAN_MOTION_DDOT": 0
  },
  {
    "OBJECT_NAME": "STARLINK-11265 [DTC]",
    "OBJECT_ID": "2024-154G",
    "EPOCH": "2025-06-07T02:12:35.368128",
    "MEAN_MOTION": 15.69716601,
    "ECCENTRICITY": 9.78e-05,
    "INCLINATION": 53.1585,
    "RA_OF_ASC_NODE": 50.229,
    "ARG_OF_PERICENTER": 99.1354,
    "MEAN_ANOMALY": 260.9774,
    "EPHEMERIS_TYPE": 0,
    "CLASSIFICATION_TYPE": "U",
    "NORAD_CAT_ID": 60909,
    "ELEMENT_SET_NO": 999,
    "REV_AT_EPOCH": 4522,
    "BSTAR": -2.912e-05,
    "MEAN_MOTION_DOT": -4.115e-05,
    "MEAN_MOTION_DDOT": 0
  },
  {
    "OBJECT_NAME": "STARLINK-11250 [DTC]",
    "OBJECT_ID": "2024-154H",
    "EPOCH": "2025-06-07T00:05:34.957248",
    "MEAN_MOTION": 15.69717514,
    "ECCENTRICITY": 7.69e-05,
    "INCLINATION": 53.1595,
    "RA_OF_ASC_NODE": 50.3821,
    "ARG_OF_PERICENTER": 71.8116,
    "MEAN_ANOMALY": 288.2985,
    "EPHEMERIS_TYPE": 0,
    "CLASSIFICATION_TYPE": "U",
    "NORAD_CAT_ID": 60910,
    "ELEMENT_SET_NO": 999,
    "REV_AT_EPOCH": 4521,
    "BSTAR": -8.6414e-06,
    "MEAN_MOTION_DOT": -1.635e-05,
    "MEAN_MOTION_DDOT": 0
  },
  {
    "OBJECT_NAME": "STARLINK-11190 [DTC]",
    "OBJECT_ID": "2024-154J",
    "EPOCH": "2025-06-07T21:22:05.403648",
    "MEAN_MOTION": 15.69716925,
    "ECCENTRICITY": 6.41e-05,
    "INCLINATION": 53.1582,
    "RA_OF_ASC_NODE": 45.9546,
    "ARG_OF_PERICENTER": 104.0918,
    "MEAN_ANOMALY": 256.0171,
    "EPHEMERIS_TYPE": 0,
    "CLASSIFICATION_TYPE": "U",
    "NORAD_CAT_ID": 60911,
    "ELEMENT_SET_NO": 999,
    "REV_AT_EPOCH": 4534,
    "BSTAR": -4.6615e-06,
    "MEAN_MOTION_DOT": -1.153e-05,
    "MEAN_MOTION_DDOT": 0
  },
  {
    "OBJECT_NAME": "STARLINK-11225 [DTC]",
    "OBJECT_ID": "2024-154K",
    "EPOCH": "2025-06-06T23:51:27.371520",
    "MEAN_MOTION": 15.69689374,
    "ECCENTRICITY": 0.0001233,
    "INCLINATION": 53.1598,
    "RA_OF_ASC_NODE": 50.3166,
    "ARG_OF_PERICENTER": 109.9912,
    "MEAN_ANOMALY": 250.1239,
    "EPHEMERIS_TYPE": 0,
    "CLASSIFICATION_TYPE": "U",
    "NORAD_CAT_ID": 60912,
    "ELEMENT_SET_NO": 999,
    "REV_AT_EPOCH": 4520,
    "BSTAR": 4.7387e-05,
    "MEAN_MOTION_DOT": 5.151e-05,
    "MEAN_MOTION_DDOT": 0
  },
  {
    "OBJECT_NAME": "STARLINK-11273 [DTC]",
    "OBJECT_ID": "2024-154L",
    "EPOCH": "2025-06-06T23:44:23.514720",
    "MEAN_MOTION": 15.69709487,
    "ECCENTRICITY": 0.0001082,
    "INCLINATION": 53.1589,
    "RA_OF_ASC_NODE": 50.2825,
    "ARG_OF_PERICENTER": 105.8386,
    "MEAN_ANOMALY": 254.2751,
    "EPHEMERIS_TYPE": 0,
    "CLASSIFICATION_TYPE": "U",
    "NORAD_CAT_ID": 60913,
    "ELEMENT_SET_NO": 999,
    "REV_AT_EPOCH": 4520,
    "BSTAR": 2.8184e-06,
    "MEAN_MOTION_DOT": -2.47e-06,
    "MEAN_MOTION_DDOT": 0
  },
  {
    "OBJECT_NAME": "STARLINK-11248 [DTC]",
    "OBJECT_ID": "2024-154M",
    "EPOCH": "2025-06-07T16:25:51.277728",
    "MEAN_MOTION": 15.69707602,
    "ECCENTRICITY": 7.83e-05,
    "INCLINATION": 53.1593,
    "RA_OF_ASC_NODE": 46.7981,
    "ARG_OF_PERICENTER": 78.0383,
    "MEAN_ANOMALY": 282.0722,
    "EPHEMERIS_TYPE": 0,
    "CLASSIFICATION_TYPE": "U",
    "NORAD_CAT_ID": 60914,
    "ELEMENT_SET_NO": 999,
    "REV_AT_EPOCH": 4531,
    "BSTAR": 1.1261e-06,
    "MEAN_MOTION_DOT": -4.52e-06,
    "MEAN_MOTION_DDOT": 0
  },
  {
    "OBJECT_NAME": "STARLINK-11271 [DTC]",
    "OBJECT_ID": "2024-154N",
    "EPOCH": "2025-06-07T16:18:47.439936",
    "MEAN_MOTION": 15.697048,
    "ECCENTRICITY": 0.0001111,
    "INCLINATION": 53.1592,
    "RA_OF_ASC_NODE": 46.765,
    "ARG_OF_PERICENTER": 85.5473,
    "MEAN_ANOMALY": 274.5672,
    "EPHEMERIS_TYPE": 0,
    "CLASSIFICATION_TYPE": "U",
    "NORAD_CAT_ID": 60915,
    "ELEMENT_SET_NO": 999,
    "REV_AT_EPOCH": 4531,
    "BSTAR": 2.466e-06,
    "MEAN_MOTION_DOT": -2.9e-06,
    "MEAN_MOTION_DDOT": 0
  },
  {
    "OBJECT_NAME": "STARLINK-32371",
    "OBJECT_ID": "2024-154P",
    "EPOCH": "2025-06-06T22:08:13.974144",
    "MEAN_MOTION": 15.30200824,
    "ECCENTRICITY": 0.0001378,
    "INCLINATION": 53.1609,
    "RA_OF_ASC_NODE": 124.7645,
    "ARG_OF_PERICENTER": 84.8289,
    "MEAN_ANOMALY": 275.2869,
    "EPHEMERIS_TYPE": 0,
    "CLASSIFICATION_TYPE": "U",
    "NORAD_CAT_ID": 60916,
    "ELEMENT_SET_NO": 999,
    "REV_AT_EPOCH": 4411,
    "BSTAR": 3.5705e-05,
    "MEAN_MOTION_DOT": 6.98e-06,
    "MEAN_MOTION_DDOT": 0
  },
  {
    "OBJECT_NAME": "STARLINK-32369",
    "OBJECT_ID": "2024-154Q",
    "EPOCH": "2025-06-07T21:11:41.402976",
    "MEAN_MOTION": 15.30188569,
    "ECCENTRICITY": 0.0001326,
    "INCLINATION": 53.1608,
    "RA_OF_ASC_NODE": 120.0961,
    "ARG_OF_PERICENTER": 85.9897,
    "MEAN_ANOMALY": 274.1255,
    "EPHEMERIS_TYPE": 0,
    "CLASSIFICATION_TYPE": "U",
    "NORAD_CAT_ID": 60917,
    "ELEMENT_SET_NO": 999,
    "REV_AT_EPOCH": 4426,
    "BSTAR": 8.2714e-06,
    "MEAN_MOTION_DOT": -1.14e-06,
    "MEAN_MOTION_DDOT": 0
  },
  {
    "OBJECT_NAME": "STARLINK-32317",
    "OBJECT_ID": "2024-154R",
    "EPOCH": "2025-06-07T14:25:14.700576",
    "MEAN_MOTION": 15.30194079,
    "ECCENTRICITY": 0.0001594,
    "INCLINATION": 53.1603,
    "RA_OF_ASC_NODE": 121.8894,
    "ARG_OF_PERICENTER": 95.7936,
    "MEAN_ANOMALY": 264.3246,
    "EPHEMERIS_TYPE": 0,
    "CLASSIFICATION_TYPE": "U",
    "NORAD_CAT_ID": 60918,
    "ELEMENT_SET_NO": 999,
    "REV_AT_EPOCH": 4421,
    "BSTAR": -1.2211e-06,
    "MEAN_MOTION_DOT": -3.96e-06,
    "MEAN_MOTION_DDOT": 0
  },
  {
    "OBJECT_NAME": "STARLINK-32367",
    "OBJECT_ID": "2024-154S",
    "EPOCH": "2025-06-07T14:38:45.695904",
    "MEAN_MOTION": 15.30188826,
    "ECCENTRICITY": 0.0001405,
    "INCLINATION": 53.1597,
    "RA_OF_ASC_NODE": 121.2347,
    "ARG_OF_PERICENTER": 93.4262,
    "MEAN_ANOMALY": 266.6899,
    "EPHEMERIS_TYPE": 0,
    "CLASSIFICATION_TYPE": "U",
    "NORAD_CAT_ID": 60919,
    "ELEMENT_SET_NO": 999,
    "REV_AT_EPOCH": 4423,
    "BSTAR": -1.0282e-05,
    "MEAN_MOTION_DOT": -6.64e-06,
    "MEAN_MOTION_DDOT": 0
  },
  {
    "OBJECT_NAME": "STARLINK-32345",
    "OBJECT_ID": "2024-154T",
    "EPOCH": "2025-06-06T14:55:58.257120",
    "MEAN_MOTION": 15.30193706,
    "ECCENTRICITY": 0.0001257,
    "INCLINATION": 53.1594,
    "RA_OF_ASC_NODE": 126.4447,
    "ARG_OF_PERICENTER": 100.9368,
    "MEAN_ANOMALY": 259.1774,
    "EPHEMERIS_TYPE": 0,
    "CLASSIFICATION_TYPE": "U",
    "NORAD_CAT_ID": 60920,
    "ELEMENT_SET_NO": 999,
    "REV_AT_EPOCH": 4407,
    "BSTAR": -9.3603e-06,
    "MEAN_MOTION_DOT": -6.36e-06,
    "MEAN_MOTION_DDOT": 0
  }
]